[{"OBJECT_NAME":"STARLINK-31816","OBJECT_ID":"2024-090N","EPOCH":"2026-03-09T08:25:17.568192","MEAN_MOTION":15.27579477,"ECCENTRICITY":0.00013718,"INCLINATION":42.9989,"RA_OF_ASC_NODE":185.785,"ARG_OF_PERICENTER":286.0581,"MEAN_ANOMALY":74.0119,"EPHEMERIS_TYPE":0,"CLASSIFICATION_TYPE":"U","NORAD_CAT_ID":59742,"ELEMENT_SET_NO":999,"REV_AT_EPOCH":10336,"BSTAR":-5.8813237e-5,"MEAN_MOTION_DOT":-1.88e-5,"MEAN_MOTION_DDOT":0},{"OBJECT_NAME":"CZ-6A DEB","OBJECT_ID":"2022-151AJB","EPOCH":"2026-02-27T14:06:27.470880","MEAN_MOTION":15.13235807,"ECCENTRICITY":0.00651829,"INCLINATION":98.7617,"RA_OF_ASC_NODE":191.4844,"ARG_OF_PERICENTER":85.1472,"MEAN_ANOMALY":275.7194,"EPHEMERIS_TYPE":0,"CLASSIFICATION_TYPE":"U","NORAD_CAT_ID":58433,"ELEMENT_SET_NO":999,"REV_AT_EPOCH":15167,"BSTAR":0.0027921214,"MEAN_MOTION_DOT":0.00052525,"MEAN_MOTION_DDOT":0}]
